NORAD_CAT_ID,OBJECT_NAME,OBJECT_TYPE,EPOCH,MEAN_MOTION,ECCENTRICITY,INCLINATION,RA_OF_ASC_NODE,ARG_OF_PERICENTER,MEAN_ANOMALY,BSTAR,MEAN_MOTION_DOT,MEAN_MOTION_DDOT,TLE_LINE0,TLE_LINE1,TLE_LINE2,SEMIMAJOR_AXIS,PERIOD,APOGEE,PERIGEE,DECAYED
53554.0,STARLINK-4506,PAYLOAD,2024-01-03 02:57:17,15.08838648,0.0001603,53.2164,40.0554,97.9679,262.1495,-3.8496e-05,-9.01e-06,0.0,0 STARLINK-4506,1 53554U 22101AD  24003.12312347 -.00000901  00000-0 -38496-4 0  9996,2 53554  53.2164  40.0554 0001603  97.9679 262.1495 15.08838648 76058,6917.885,95.438,540.858,538.641,0.0
53554.0,STARLINK-4506,PAYLOAD,2024-01-03 07:43:27,15.08837869,0.0001578,53.2171,39.163,101.2081,258.9089,-1.7173e-05,-5.61e-06,0.0,0 STARLINK-4506,1 53554U 22101AD  24003.32184730 -.00000561  00000-0 -17173-4 0  9992,2 53554  53.2171  39.1630 0001578 101.2081 258.9089 15.08837869 76086,6917.887,95.438,540.844,538.66,0.0
53554.0,STARLINK-4506,PAYLOAD,2024-01-04 05:58:51,15.08835442,0.0001487,53.2173,35.002,93.9666,266.1496,2.1144e-05,4.9e-07,0.0,0 STARLINK-4506,1 53554U 22101AD  24004.24921031  .00000049  00000-0  21144-4 0  9999,2 53554  53.2173  35.0020 0001487  93.9666 266.1496 15.08835442 76225,6917.894,95.438,540.788,538.731,0.0
53554.0,STARLINK-4506,PAYLOAD,2024-01-04 12:20:24,15.08837304,0.0001552,53.2171,33.8103,99.4144,260.7023,3.2249e-05,2.25e-06,0.0,0 STARLINK-4506,1 53554U 22101AD  24004.51416884  .00000225  00000-0  32249-4 0  9998,2 53554  53.2171  33.8103 0001552  99.4144 260.7023 15.08837304 76265,6917.889,95.438,540.827,538.68,0.0
53554.0,STARLINK-4506,PAYLOAD,2024-01-05 07:25:01,15.08838428,0.0001498,53.2173,30.2409,100.2577,259.8584,0.00010728,1.42e-05,0.0,0 STARLINK-4506,1 53554U 22101AD  24005.30904906  .00001420  00000-0  10728-3 0  9998,2 53554  53.2173  30.2409 0001498 100.2577 259.8584 15.08838428 76389,6917.885,95.438,540.786,538.714,0.0
53554.0,STARLINK-4506,PAYLOAD,2024-01-06 08:51:11,15.088469,0.0001461,53.2172,25.4833,97.8592,262.2566,0.00016021,2.263e-05,0.0,0 STARLINK-4506,1 53554U 22101AD  24006.36888358  .00002263  00000-0  16021-3 0  9995,2 53554  53.2172  25.4833 0001461  97.8592 262.2566 15.08846900 76543,6917.859,95.437,540.735,538.714,0.0
53554.0,STARLINK-4506,PAYLOAD,2024-01-07 00:45:03,15.08838882,0.0001497,53.218,22.5101,105.2131,254.9027,7.3364e-05,8.8e-06,0.0,0 STARLINK-4506,1 53554U 22101AD  24007.03129051  .00000880  00000-0  73364-4 0  9995,2 53554  53.2180  22.5101 0001497 105.2131 254.9027 15.08838882 76641,6917.884,95.438,540.784,538.713,0.0
53554.0,STARLINK-4506,PAYLOAD,2024-01-07 07:06:36,15.08841438,0.0001472,53.2174,21.3214,80.565,279.5508,3.9784e-05,3.45e-06,0.0,0 STARLINK-4506,1 53554U 22101AD  24007.29625064  .00000345  00000-0  39784-4 0  9992,2 53554  53.2174  21.3214 0001472  80.5650 279.5508 15.08841438 76682,6917.876,95.437,540.759,538.723,0.0
53554.0,STARLINK-4506,PAYLOAD,2024-01-08 03:46:36,15.08845918,0.0001468,53.2175,17.4551,98.3546,261.7613,5.7391e-05,6.26e-06,0.0,0 STARLINK-4506,1 53554U 22101AD  24008.15736589  .00000626  00000-0  57391-4 0  9999,2 53554  53.2175  17.4551 0001468  98.3546 261.7613 15.08845918 76811,6917.862,95.437,540.743,538.712,0.0
53554.0,STARLINK-4506,PAYLOAD,2024-01-08 10:08:08,15.08849794,0.0001483,53.2176,16.2652,97.7396,262.3765,0.00011105,1.48e-05,0.0,0 STARLINK-4506,1 53554U 22101AD  24008.42232161  .00001480  00000-0  11105-3 0  9997,2 53554  53.2176  16.2652 0001483  97.7396 262.3765 15.08849794 76859,6917.85,95.437,540.741,538.69,0.0
53554.0,STARLINK-4506,PAYLOAD,2024-01-09 03:37:24,15.08822854,0.0001804,53.2177,12.9888,118.3776,241.7398,0.00030736,4.605e-05,0.0,0 STARLINK-4506,1 53554U 22101AD  24009.15097252  .00004605  00000-0  30736-3 0  9991,2 53554  53.2177  12.9888 0001804 118.3776 241.7398 15.08822854 76966,6917.933,95.439,541.046,538.55,0.0
53554.0,STARLINK-4506,PAYLOAD,2024-01-09 09:58:56,15.08831651,0.000164,53.2176,11.8021,105.8706,254.2467,0.00023288,3.419e-05,0.0,0 STARLINK-4506,1 53554U 22101AD  24009.41593060  .00003419  00000-0  23288-3 0  9994,2 53554  53.2176  11.8021 0001640 105.8706 254.2467 15.08831651 77001,6917.906,95.438,540.905,538.636,0.0
53554.0,STARLINK-4506,PAYLOAD,2024-01-10 03:28:10,15.08839728,0.0001507,53.2168,8.5314,84.2942,275.8222,2.6447e-05,1.33e-06,0.0,0 STARLINK-4506,1 53554U 22101AD  24010.14457138  .00000133  00000-0  26447-4 0  9992,2 53554  53.2168   8.5314 0001507  84.2942 275.8222 15.08839728 77117,6917.881,95.438,540.789,538.704,0.0
53554.0,STARLINK-4506,PAYLOAD,2024-01-10 06:38:57,15.08842417,0.000152,53.2169,7.9366,82.1126,278.0039,4.8683e-05,4.87e-06,0.0,0 STARLINK-4506,1 53554U 22101AD  24010.27704921  .00000487  00000-0  48683-4 0  9999,2 53554  53.2169   7.9366 0001520  82.1126 278.0039 15.08842417 77136,6917.873,95.437,540.79,538.686,0.0
53554.0,STARLINK-4506,PAYLOAD,2024-01-11 04:54:21,15.08840778,0.0001467,53.2171,3.7736,100.5289,259.5869,9.5236e-05,1.228e-05,0.0,0 STARLINK-4506,1 53554U 22101AD  24011.20441035  .00001228  00000-0  95236-4 0  9997,2 53554  53.2171   3.7736 0001467 100.5289 259.5869 15.08840778 77277,6917.878,95.438,540.758,538.728,0.0
53554.0,STARLINK-4506,PAYLOAD,2024-01-12 03:09:45,15.08837161,0.0001464,53.2162,359.613,93.6763,266.4397,3.7619e-05,3.11e-06,0.0,0 STARLINK-4506,1 53554U 22101AD  24012.13177366  .00000311  00000-0  37619-4 0  9996,2 53554  53.2162 359.6130 0001464  93.6763 266.4397 15.08837161 77415,6917.889,95.438,540.767,538.741,0.0
53554.0,STARLINK-4506,PAYLOAD,2024-01-12 06:20:31,15.08841133,0.0001447,53.2166,359.0196,90.3439,269.7719,9.4083e-05,1.21e-05,0.0,0 STARLINK-4506,1 53554U 22101AD  24012.26425222  .00001210  00000-0  94083-4 0  9994,2 53554  53.2166 359.0196 0001447  90.3439 269.7719 15.08841133 77430,6917.877,95.437,540.743,538.741,0.0
53554.0,STARLINK-4506,PAYLOAD,2024-01-13 07:46:41,15.08844002,0.0001504,53.2183,354.2625,84.551,275.5654,9.706e-05,1.257e-05,0.0,0 STARLINK-4506,1 53554U 22101AD  24013.32409557  .00001257  00000-0  97060-4 0  9994,2 53554  53.2183 354.2625 0001504  84.5510 275.5654 15.08844002 77590,6917.868,95.437,540.774,538.693,0.0
53554.0,STARLINK-4506,PAYLOAD,2024-01-14 04:26:43,15.08838394,0.0001754,53.2187,350.396,79.1705,280.9484,0.00012894,1.765e-05,0.0,0 STARLINK-4506,1 53554U 22101AD  24014.18522082  .00001765  00000-0  12894-3 0  9993,2 53554  53.2187 350.3960 0001754  79.1705 280.9484 15.08838394 77729,6917.885,95.438,540.964,538.537,0.0
53554.0,STARLINK-4506,PAYLOAD,2024-01-14 21:55:57,15.08843419,0.0001758,53.2181,347.1252,83.5023,276.6169,0.00011433,1.532e-05,0.0,0 STARLINK-4506,1 53554U 22101AD  24014.91385981  .00001532  00000-0  11433-3 0  9999,2 53554  53.2181 347.1252 0001758  83.5023 276.6169 15.08843419 77835,6917.87,95.437,540.951,538.519,0.0
53554.0,STARLINK-4506,PAYLOAD,2024-01-15 07:28:15,15.08857469,0.000161,53.2175,345.3376,103.7333,256.3838,0.00027559,4.103e-05,0.0,0 STARLINK-4506,1 53554U 22101AD  24015.31128996  .00004103  00000-0  27559-3 0  9998,2 53554  53.2175 345.3376 0001610 103.7333 256.3838 15.08857469 77895,6917.827,95.436,540.806,538.578,0.0
53554.0,STARLINK-4506,PAYLOAD,2024-01-16 07:19:03,15.08840688,0.0001986,53.2184,340.8758,116.9952,243.1243,0.00011119,1.482e-05,0.0,0 STARLINK-4506,1 53554U 22101AD  24016.30489971  .00001482  00000-0  11119-3 0  9993,2 53554  53.2184 340.8758 0001986 116.9952 243.1243 15.08840688 78045,6917.878,95.438,541.117,538.369,0.0
53554.0,STARLINK-4506,PAYLOAD,2024-01-17 03:59:03,15.0885227,0.0001664,53.2168,337.0106,120.7746,239.341,0.0001555,2.188e-05,0.0,0 STARLINK-4506,1 53554U 22101AD  24017.16601342  .00002188  00000-0  15550-3 0  9993,2 53554  53.2168 337.0106 0001664 120.7746 239.3410 15.08852270 78176,6917.843,95.437,540.859,538.557,0.0
53554.0,STARLINK-4506,PAYLOAD,2024-01-18 03:49:51,15.08841769,0.0001563,53.2176,332.5498,112.4455,247.6703,8.9911e-05,1.143e-05,0.0,0 STARLINK-4506,1 53554U 22101AD  24018.15961981  .00001143  00000-0  89911-4 0  9994,2 53554  53.2176 332.5498 0001563 112.4455 247.6703 15.08841769 78327,6917.875,95.437,540.821,538.659,0.0
53554.0,STARLINK-4506,PAYLOAD,2024-01-18 07:00:37,15.08841507,0.0001496,53.2173,331.9553,108.8943,251.2211,9.2599e-05,1.186e-05,0.0,0 STARLINK-4506,1 53554U 22101AD  24018.29210045  .00001186  00000-0  92599-4 0  9990,2 53554  53.2173 331.9553 0001496 108.8943 251.2211 15.08841507 78342,6917.876,95.437,540.776,538.706,0.0
53554.0,STARLINK-4506,PAYLOAD,2024-01-18 21:19:06,15.08836812,0.0001511,53.2174,329.2777,105.0683,255.0476,-4.9833e-05,-1.081e-05,0.0,0 STARLINK-4506,1 53554U 22101AD  24018.88826458 -.00001081  00000-0 -49833-4 0  9995,2 53554  53.2174 329.2777 0001511 105.0683 255.0476 15.08836812 78437,6917.89,95.438,540.8,538.71,0.0
53554.0,STARLINK-4506,PAYLOAD,2024-01-19 05:16:01,15.08849892,0.0001514,53.2186,327.7892,95.5929,264.5236,0.00015722,2.216e-05,0.0,0 STARLINK-4506,1 53554U 22101AD  24019.21945800  .00002216  00000-0  15722-3 0  9994,2 53554  53.2186 327.7892 0001514  95.5929 264.5236 15.08849892 78486,6917.85,95.437,540.763,538.668,0.0
53554.0,STARLINK-4506,PAYLOAD,2024-01-20 03:31:25,15.08845698,0.0001571,53.2176,323.6283,80.1212,279.9958,0.00013248,1.821e-05,0.0,0 STARLINK-4506,1 53554U 22101AD  24020.14682013  .00001821  00000-0  13248-3 0  9994,2 53554  53.2176 323.6283 0001571  80.1212 279.9958 15.08845698 78629,6917.863,95.437,540.815,538.641,0.0
53554.0,STARLINK-4506,PAYLOAD,2024-01-20 06:42:11,15.08847109,0.0001556,53.2176,323.0336,84.5331,275.5838,0.00014398,2.005e-05,0.0,0 STARLINK-4506,1 53554U 22101AD  24020.27929882  .00002005  00000-0  14398-3 0  9998,2 53554  53.2176 323.0336 0001556  84.5331 275.5838 15.08847109 78645,6917.859,95.437,540.8,538.647,0.0
53554.0,STARLINK-4506,PAYLOAD,2024-01-21 03:22:12,15.08845531,0.0001518,53.2193,319.1632,86.3949,273.7216,-1.0819e-05,-4.6e-06,0.0,0 STARLINK-4506,1 53554U 22101AD  24021.14042481 -.00000460  00000-0 -10819-4 0  9996,2 53554  53.2193 319.1632 0001518  86.3949 273.7216 15.08845531 78773,6917.863,95.437,540.779,538.678,0.0
